<?xml version="1.0" encoding="UTF-8"?>
<kml xmlns="http://www.opengis.net/kml/2.2" xmlns:gx="http://www.google.com/kml/ext/2.2" xmlns:kml="http://www.opengis.net/kml/2.2" xmlns:atom="http://www.w3.org/2005/Atom">
<Document id="KmlFile">
	<Placemark id="00525C9145424D46F8E3">
		<name>Puerto: Puerto El Bartolo (Bonificado)</name>
		<Point>
			<coordinates>0.031343,40.085827,692.7</coordinates>
		</Point>
	</Placemark>
	<Placemark id="005773B2E5424D4F4031">
		<name>Punto anonimo 26</name>
		<Point>
			<coordinates>-0.01242814272227388,40.17350114472946,291.7701719510278</coordinates>
		</Point>
	</Placemark>
	<Placemark id="007CB9B185424D4282E8">
		<name>Punto anonimo 7</name>
		<Point>
			<coordinates>0.1894851203210135,40.30164349526277,258.151824620125</coordinates>
		</Point>
	</Placemark>
	<Placemark id="0091D91C81424D63480C">
		<name>Punto anonimo 37</name>
		<Point>
			<coordinates>-0.008524476737522546,40.02614983228354,28.95497207992561</coordinates>
		</Point>
	</Placemark>
	<Placemark id="00B2FFBA3F424D56930E">
		<name>Punto anonimo 35</name>
		<Point>
			<coordinates>0.04453848452825593,40.07141560082079,303.976106525694</coordinates>
		</Point>
	</Placemark>
	<Placemark id="00BA3DB16D424D51EE8E">
		<name>Punto anonimo 29</name>
		<Point>
			<coordinates>0.1516695993007966,40.13938323332589,11.78297260874237</coordinates>
		</Point>
	</Placemark>
	<Placemark id="00C1E09707424D54D6EF">
		<name>Punto anonimo 32</name>
		<Point>
			<coordinates>0.06876416475096292,40.05660925781514,9.971627384616873</coordinates>
		</Point>
	</Placemark>
	<Placemark id="00E049557E424D4071A1">
		<name>Punto anonimo 4</name>
		<Point>
			<coordinates>0.2252221887954176,40.3013808400042,150.0130929829675</coordinates>
		</Point>
	</Placemark>
	<Placemark id="01228C6ECD424D432578">
		<name>Punto anonimo 9</name>
		<Point>
			<coordinates>0.1792845071352445,40.29579297806123,297.2389244772131</coordinates>
		</Point>
	</Placemark>
	<Placemark id="016BD12C4F424D4CD1A3">
		<name>Punto anonimo 20</name>
		<Point>
			<coordinates>-0.04714507851369065,40.29859582162118,473.5318846951765</coordinates>
		</Point>
	</Placemark>
	<Placemark id="0186763079424D3F6969">
		<name>Punto anonimo 2</name>
		<Point>
			<coordinates>0.2247796336053232,40.28278530900607,159.5430137940347</coordinates>
		</Point>
	</Placemark>
	<Placemark id="01A895FDA6424D493CF7">
		<name>Punto anonimo 13</name>
		<Point>
			<coordinates>0.1326505658200805,40.32024470237551,235.2420392111205</coordinates>
		</Point>
	</Placemark>
	<Placemark id="01DDD5D8E5424D64D473">
		<name>Punto anonimo 46</name>
		<Point>
			<coordinates>-0.04278556111082632,40.00498562513872,26.52598072689248</coordinates>
		</Point>
	</Placemark>
	<Placemark id="01DF00A4A2424D4E5C54">
		<name>Punto anonimo 23</name>
		<Point>
			<coordinates>0.02596022277109977,40.21009927524121,307.8790075013571</coordinates>
		</Point>
	</Placemark>
	<Placemark id="023BDFFE8C424D607194">
		<name>Punto anonimo 44</name>
		<Point>
			<coordinates>0.02106022196473267,40.07680420206047,581.1109737868163</coordinates>
		</Point>
	</Placemark>
	<Placemark id="024D6E317A424D506FB0">
		<name>Punto anonimo 28</name>
		<Point>
			<coordinates>0.08072033546731916,40.15957775241675,336.8424465546821</coordinates>
		</Point>
	</Placemark>
	<Placemark id="0267280EDB424D4C4B0E">
		<name>Punto anonimo 18</name>
		<Point>
			<coordinates>0.05115331862051375,40.33936381034038,743.3014827004519</coordinates>
		</Point>
	</Placemark>
	<Placemark id="02907A02C0424D5F4230">
		<name>Punto anonimo 43</name>
		<Point>
			<coordinates>0.0456737813727693,40.08751906591259,487.6313054406799</coordinates>
		</Point>
	</Placemark>
	<Placemark id="02B1B3A751424D576050">
		<name>Punto anonimo 36</name>
		<Point>
			<coordinates>0.0414885587125946,40.07959550911122,379.7956318914083</coordinates>
		</Point>
	</Placemark>
	<Placemark id="02CEFCC077424D4AE5F8">
		<name>Punto anonimo 14</name>
		<Point>
			<coordinates>0.07958674403153898,40.25865668504347,279.8463810604204</coordinates>
		</Point>
	</Placemark>
	<Placemark id="02F85E3660424D41F6A6">
		<name>Punto anonimo 6</name>
		<Point>
			<coordinates>0.2181075236901608,40.30295855696149,167.6812208670543</coordinates>
		</Point>
	</Placemark>
	<Placemark id="034EE92AEE424D456318">
		<name>Puerto: Puerto de la Serratella</name>
		<Point>
			<coordinates>0.028365,40.323884,838.4</coordinates>
		</Point>
	</Placemark>
	<Placemark id="051D9DB1C8424D4629D6">
		<name>Puerto: Coll de la Bandereta</name>
		<Point>
			<coordinates>-0.032645,40.276616,780.9</coordinates>
		</Point>
	</Placemark>
	<Placemark id="05CB2B086E424D545E78">
		<name>Punto anonimo 31</name>
		<Point>
			<coordinates>0.08997620603689027,40.05612655224824,16.25697276607643</coordinates>
		</Point>
	</Placemark>
	<Placemark id="06308EF5F5424D4C93A8">
		<name>Punto anonimo 19</name>
		<Point>
			<coordinates>0.02351129452145218,40.35614525718778,527.0200222974769</coordinates>
		</Point>
	</Placemark>
	<Placemark id="0652D69B53424D4E2DB7">
		<name>Punto anonimo 22</name>
		<Point>
			<coordinates>-0.01409920327322789,40.23969807468182,525.1303478316754</coordinates>
		</Point>
	</Placemark>
	<Placemark id="070ADB7BDA424D4F1464">
		<name>Punto anonimo 25</name>
		<Point>
			<coordinates>-0.02755122983757241,40.1687371940578,280.3259672440814</coordinates>
		</Point>
	</Placemark>
	<Placemark id="075E9DA6BD424D46CCC8">
		<name>Puerto: Alto del Desierto de las Palmas</name>
		<Point>
			<coordinates>0.027091,40.073811,419.2</coordinates>
		</Point>
	</Placemark>
	<Placemark id="07DB518F5D424D42D4FE">
		<name>Punto anonimo 8</name>
		<Point>
			<coordinates>0.1819400391346204,40.29240853970354,294.0633522140562</coordinates>
		</Point>
	</Placemark>
	<Placemark id="085763A1A5424D3EBCF7">
		<name>Punto anonimo 1</name>
		<Point>
			<coordinates>0.2396238761134772,40.27224706303852,103.9060264854682</coordinates>
		</Point>
	</Placemark>
	<Placemark id="0877632E12424D618A6E">
		<name>Puerto: Alto del Desierto de las Palmas</name>
		<Point>
			<coordinates>0.027091,40.073811,419.2</coordinates>
		</Point>
	</Placemark>
	<Placemark id="090976B6DA424D5C19D9">
		<name>Punto anonimo 39</name>
		<Point>
			<coordinates>0.06876416475096292,40.05660925781514,9.971627384616873</coordinates>
		</Point>
	</Placemark>
	<Placemark id="0960B760D3424D48233E">
		<name>Punto anonimo 11</name>
		<Point>
			<coordinates>0.1718416051976535,40.29574404238571,226.3409974512018</coordinates>
		</Point>
	</Placemark>
	<Placemark id="098FB3297D424D5D8CD8">
		<name>Punto anonimo 42</name>
		<Point>
			<coordinates>0.04453848452825593,40.07141560082079,303.976106525694</coordinates>
		</Point>
	</Placemark>
	<Placemark id="0A3C745AEA424D52DD34">
		<name>Punto anonimo 30</name>
		<Point>
			<coordinates>0.1097276909895206,40.07317794072012,112.6201297859993</coordinates>
		</Point>
	</Placemark>
	<Placemark id="0ACFCD4C17424D47AA9E">
		<name>Punto anonimo 10</name>
		<Point>
			<coordinates>0.1706601974767818,40.29829229730931,236.2191783855007</coordinates>
		</Point>
	</Placemark>
	<Placemark id="0ADB0E80A2424D4ECC34">
		<name>Punto anonimo 24</name>
		<Point>
			<coordinates>-0.0338610123954175,40.1811157988046,310.080712971785</coordinates>
		</Point>
	</Placemark>
	<Placemark id="0ADC65581C424D4B7B30">
		<name>Punto anonimo 16</name>
		<Point>
			<coordinates>0.0402948413604487,40.28758121788008,598.1666814102052</coordinates>
		</Point>
	</Placemark>
	<Placemark id="0AE65DEAB1424D41B7AE">
		<name>Punto anonimo 5</name>
		<Point>
			<coordinates>0.2230582832038652,40.305096228321,159.4443919501619</coordinates>
		</Point>
	</Placemark>
	<Placemark id="0B0888F9AF424D45C317">
		<name>Salida</name>
		<Point>
			<coordinates>0.246447,40.252003,15</coordinates>
		</Point>
	</Placemark>
	<Placemark id="0B232211FF424D489D61">
		<name>Punto anonimo 12</name>
		<Point>
			<coordinates>0.1643831572041798,40.29548247683246,191.8335295629191</coordinates>
		</Point>
	</Placemark>
	<Placemark id="0BB2242295424D468F40">
		<name>Sprint Intermedio</name>
		<Point>
			<coordinates>-0.007069999999999999,40.025169,23</coordinates>
		</Point>
	</Placemark>
	<Placemark id="0BDFC0C79F424D655346">
		<name>Punto anonimo 47</name>
		<Point>
			<coordinates>-0.022453158945972,39.99345127034033,14.4006348901293</coordinates>
		</Point>
	</Placemark>
	<Placemark id="0C58802549424D4A6349">
		<name>Punto anonimo 15</name>
		<Point>
			<coordinates>0.03896335093779069,40.27118472481438,428.5990075175117</coordinates>
		</Point>
	</Placemark>
	<Placemark id="0DBCDA1837424D4723E8">
		<name>Meta</name>
		<Point>
			<coordinates>-0.033494,39.975814,19.99</coordinates>
		</Point>
	</Placemark>
	<Placemark id="0DC6C7DCF8424D5545FB">
		<name>Punto anonimo 33</name>
		<Point>
			<coordinates>0.04521438695652247,40.0569063237886,73.24695963500059</coordinates>
		</Point>
	</Placemark>
	<Placemark id="0DCAD4896B424D4DCE16">
		<name>Punto anonimo 21</name>
		<Point>
			<coordinates>-0.006443080415776681,40.2584881969107,672.3364057200261</coordinates>
		</Point>
	</Placemark>
	<Placemark id="0E4D03CC25424D3FCD69">
		<name>Punto anonimo 3</name>
		<Point>
			<coordinates>0.2276709686663958,40.2991009089048,149.45091588972</coordinates>
		</Point>
	</Placemark>
	<Placemark id="0E7004C446424D5631C3">
		<name>Punto anonimo 34</name>
		<Point>
			<coordinates>0.04257180622286638,40.07571551393073,270.962151792662</coordinates>
		</Point>
	</Placemark>
	<Placemark id="0EEB3B6C3D424D4F8C80">
		<name>Punto anonimo 27</name>
		<Point>
			<coordinates>0.04430546743957153,40.15524521701766,278.3606749252861</coordinates>
		</Point>
	</Placemark>
	<Placemark id="0F01359578424D5B4A68">
		<name>Punto anonimo 38</name>
		<Point>
			<coordinates>0.01638715469554741,40.02536774858154,2.070523493352399</coordinates>
		</Point>
	</Placemark>
	<Placemark id="0F2F6861FE424D4BD04B">
		<name>Punto anonimo 17</name>
		<Point>
			<coordinates>0.0308159894578397,40.28802482823414,718.1946914923672</coordinates>
		</Point>
	</Placemark>
	<Placemark id="0F47705CAA424D40F590">
		<name>Punto anonimo 5</name>
		<Point>
			<coordinates>0.2292679797498121,40.30610310384969,152.1200409451372</coordinates>
		</Point>
	</Placemark>
	<Placemark id="0F6D5EDB17424D6220E1">
		<name>Punto anonimo 45</name>
		<Point>
			<coordinates>-0.008524476737522546,40.02614983228354,28.95497207992561</coordinates>
		</Point>
	</Placemark>
	<Placemark id="15CF33AFB1424D5D8CD8">
		<name>Punto anonimo 40</name>
		<Point>
			<coordinates>0.04521438695652247,40.0569063237886,73.24695963500059</coordinates>
		</Point>
	</Placemark>
	<Placemark id="267D55DEB5424D5D8CD8">
		<name>Punto anonimo 41</name>
		<Point>
			<coordinates>0.04257180622286638,40.07571551393073,270.962151792662</coordinates>
		</Point>
	</Placemark>
</Document>
</kml>
